[{"OBJECT_NAME":"STARLINK-5014","OBJECT_ID":"2022-119AS","EPOCH":"2026-03-09T22:12:29.199744","MEAN_MOTION":15.08849401,"ECCENTRICITY":0.00011151,"INCLINATION":53.2166,"RA_OF_ASC_NODE":307.8478,"ARG_OF_PERICENTER":79.9754,"MEAN_ANOMALY":280.1364,"EPHEMERIS_TYPE":0,"CLASSIFICATION_TYPE":"U","NORAD_CAT_ID":53926,"ELEMENT_SET_NO":999,"REV_AT_EPOCH":19194,"BSTAR":0.00022817723,"MEAN_MOTION_DOT":3.346e-5,"MEAN_MOTION_DDOT":0},{"OBJECT_NAME":"PEGASUS DEB","OBJECT_ID":"1994-029AFM","EPOCH":"2026-03-08T23:15:51.953184","MEAN_MOTION":14.33874448,"ECCENTRICITY":0.03356187,"INCLINATION":81.3387,"RA_OF_ASC_NODE":74.0014,"ARG_OF_PERICENTER":52.9091,"MEAN_ANOMALY":310.2272,"EPHEMERIS_TYPE":0,"CLASSIFICATION_TYPE":"U","NORAD_CAT_ID":39914,"ELEMENT_SET_NO":999,"REV_AT_EPOCH":60479,"BSTAR":0.002295222,"MEAN_MOTION_DOT":0.00012116,"MEAN_MOTION_DDOT":0}]
